{"type": "FeatureCollection", "features": [ {"type": "Feature", "properties": {"norad_id": 30546, "name": "FENGYUN 1C DEB", "group": "fengyun-1c-debris", "lat": -25.89727492179247, "lon": 30.864215713175245, "alt_km": 599.152563822282, "timestamp": "2025-12-23T20:42:37.353050+00:00", "meta": {"OBJECT_NAME": "FENGYUN 1C DEB", "OBJECT_ID": "1999-025AKL", "EPOCH": "2025-12-22T10:25:49.355328", "MEAN_MOTION": 14.87288453, "ECCENTRICITY": 0.00928562, "INCLINATION": 98.9075, "RA_OF_ASC_NODE": 213.63, "ARG_OF_PERICENTER": 131.5867, "MEAN_ANOMALY": 350.353, "EPHEMERIS_TYPE": 0, "CLASSIFICATION_TYPE": "U", "NORAD_CAT_ID": 30546, "ELEMENT_SET_NO": 999, "REV_AT_EPOCH": 601, "BSTAR": 0.00085401584, "MEAN_MOTION_DOT": 8.271e-05, "MEAN_MOTION_DDOT": 0}, "tle": {"line1": "1 30546U 99025AKL 25356.43459902  .00008271  00000+0  85402-3 0  9999", "line2": "2 30546  98.9075 213.6300 0092856 131.5867 350.3530 14.87288453  6010"}}, "geometry": {"type": "Point", "coordinates": [30.864215713175245, -25.89727492179247]}}, {"type": "Feature", "properties": {"norad_id": 30547, "name": "FENGYUN 1C DEB", "group": "fengyun-1c-debris", "lat": 77.0543342937957, "lon": 64.2429470674816, "alt_km": 752.0843125498541, "timestamp": "2025-12-23T20:42:37.353060+00:00", "meta": {"OBJECT_NAME": "FENGYUN 1C DEB", "OBJECT_ID": "1999-025AKM", "EPOCH": "2025-12-22T06:07:06.856608", "MEAN_MOTION": 14.37766053, "ECCENTRICITY": 0.00955412, "INCLINATION": 98.9017, "RA_OF_ASC_NODE": 199.5928, "ARG_OF_PERICENTER": 189.2227, "MEAN_ANOMALY": 233.1188, "EPHEMERIS_TYPE": 0, "CLASSIFICATION_TYPE": "U", "NORAD_CAT_ID": 30547, "ELEMENT_SET_NO": 999, "REV_AT_EPOCH": 98859, "BSTAR": 0.00023698473, "MEAN_MOTION_DOT": 7.03e-06, "MEAN_MOTION_DDOT": 0}, "tle": {"line1": "1 30547U 99025AKM 25356.25494047  .00000703  00000+0  23698-3 0  9990", "line2": "2 30547  98.9017 199.5928 0095541 189.2227 233.1188 14.37766053988590"}}, "geometry": {"type": "Point", "coordinates": [64.2429470674816, 77.0543342937957]}}, {"type": "Feature", "properties": {"norad_id": 30548, "name": "FENGYUN 1C DEB", "group": "fengyun-1c-debris", "lat": -73.59221402337921, "lon": -68.06159349968323, "alt_km": 763.5344359809678, "timestamp": "2025-12-23T20:42:37.353070+00:00", "meta": {"OBJECT_NAME": "FENGYUN 1C DEB", "OBJECT_ID": "1999-025AKN", "EPOCH": "2025-12-21T23:42:27.785376", "MEAN_MOTION": 14.26960912, "ECCENTRICITY": 0.00679804, "INCLINATION": 99.6823, "RA_OF_ASC_NODE": 254.4301, "ARG_OF_PERICENTER": 309.7869, "MEAN_ANOMALY": 66.5118, "EPHEMERIS_TYPE": 0, "CLASSIFICATION_TYPE": "U", "NORAD_CAT_ID": 30548, "ELEMENT_SET_NO": 999, "REV_AT_EPOCH": 14227, "BSTAR": 0.0019268572, "MEAN_MOTION_DOT": 4.75e-05, "MEAN_MOTION_DDOT": 0}, "tle": {"line1": "1 30548U 99025AKN 25355.98782159  .00004750  00000+0  19269-2 0  9998", "line2": "2 30548  99.6823 254.4301 0067980 309.7869  66.5118 14.26960912142273"}}, "geometry": {"type": "Point", "coordinates": [-68.06159349968323, -73.59221402337921]}}, {"type": "Feature", "properties": {"norad_id": 30549, "name": "FENGYUN 1C DEB", "group": "fengyun-1c-debris", "lat": 62.915189626571426, "lon": 100.52342517478075, "alt_km": 1090.3718650532364, "timestamp": "2025-12-23T20:42:37.353081+00:00", "meta": {"OBJECT_NAME": "FENGYUN 1C DEB", "OBJECT_ID": "1999-025AKP", "EPOCH": "2025-12-22T18:38:12.484032", "MEAN_MOTION": 13.98790905, "ECCENTRICITY": 0.02883398, "INCLINATION": 98.4814, "RA_OF_ASC_NODE": 116.4808, "ARG_OF_PERICENTER": 228.9673, "MEAN_ANOMALY": 128.6244, "EPHEMERIS_TYPE": 0, "CLASSIFICATION_TYPE": "U", "NORAD_CAT_ID": 30549, "ELEMENT_SET_NO": 999, "REV_AT_EPOCH": 95434, "BSTAR": 0.0023614271, "MEAN_MOTION_DOT": 4.816e-05, "MEAN_MOTION_DDOT": 0}, "tle": {"line1": "1 30549U 99025AKP 25356.77653338  .00004816  00000+0  23614-2 0  9995", "line2": "2 30549  98.4814 116.4808 0288339 228.9673 128.6244 13.98790905954348"}}, "geometry": {"type": "Point", "coordinates": [100.52342517478075, 62.915189626571426]}}, {"type": "Feature", "properties": {"norad_id": 30550, "name": "FENGYUN 1C DEB", "group": "fengyun-1c-debris", "lat": 13.794104811626791, "lon": -109.1506481123162, "alt_km": 913.4985124864334, "timestamp": "2025-12-23T20:42:37.353091+00:00", "meta": {"OBJECT_NAME": "FENGYUN 1C DEB", "OBJECT_ID": "1999-025AKQ", "EPOCH": "2025-12-23T04:16:15.360384", "MEAN_MOTION": 14.02477018, "ECCENTRICITY": 0.01313959, "INCLINATION": 99.0541, "RA_OF_ASC_NODE": 252.4122, "ARG_OF_PERICENTER": 268.598, "MEAN_ANOMALY": 247.542, "EPHEMERIS_TYPE": 0, "CLASSIFICATION_TYPE": "U", "NORAD_CAT_ID": 30550, "ELEMENT_SET_NO": 999, "REV_AT_EPOCH": 95541, "BSTAR": 0.0026873952, "MEAN_MOTION_DOT": 4.416e-05, "MEAN_MOTION_DDOT": 0}, "tle": {"line1": "1 30550U 99025AKQ 25357.17795556  .00004416  00000+0  26874-2 0  9998", "line2": "2 30550  99.0541 252.4122 0131395 268.5980 247.5420 14.02477018955413"}}, "geometry": {"type": "Point", "coordinates": [-109.1506481123162, 13.794104811626791]}}, {"type": "Feature", "properties": {"norad_id": 30552, "name": "FENGYUN 1C DEB", "group": "fengyun-1c-debris", "lat": -39.831694277361485, "lon": 137.61215338285396, "alt_km": 717.4405086093784, "timestamp": "2025-12-23T20:42:37.353101+00:00", "meta": {"OBJECT_NAME": "FENGYUN 1C DEB", "OBJECT_ID": "1999-025AKS", "EPOCH": "2025-12-22T15:11:17.376864", "MEAN_MOTION": 14.5499109, "ECCENTRICITY": 0.00152466, "INCLINATION": 98.8347, "RA_OF_ASC_NODE": 128.8588, "ARG_OF_PERICENTER": 224.4273, "MEAN_ANOMALY": 135.57, "EPHEMERIS_TYPE": 0, "CLASSIFICATION_TYPE": "U", "NORAD_CAT_ID": 30552, "ELEMENT_SET_NO": 999, "REV_AT_EPOCH": 97796, "BSTAR": 0.003016486, "MEAN_MOTION_DOT": 0.0001298, "MEAN_MOTION_DDOT": 0}, "tle": {"line1": "1 30552U 99025AKS 25356.63284001  .00012980  00000+0  30165-2 0  9991", "line2": "2 30552  98.8347 128.8588 0015246 224.4273 135.5700 14.54991090977969"}}, "geometry": {"type": "Point", "coordinates": [137.61215338285396, -39.831694277361485]}}, {"type": "Feature", "properties": {"norad_id": 30553, "name": "FENGYUN 1C DEB", "group": "fengyun-1c-debris", "lat": -0.6289095782571946, "lon": 94.21780944964377, "alt_km": 662.1492075530023, "timestamp": "2025-12-23T20:42:37.353111+00:00", "meta": {"OBJECT_NAME": "FENGYUN 1C DEB", "OBJECT_ID": "1999-025AKT", "EPOCH": "2025-12-22T05:34:38.589312", "MEAN_MOTION": 14.7261941, "ECCENTRICITY": 0.00196137, "INCLINATION": 99.1309, "RA_OF_ASC_NODE": 92.2862, "ARG_OF_PERICENTER": 123.2859, "MEAN_ANOMALY": 237.0227, "EPHEMERIS_TYPE": 0, "CLASSIFICATION_TYPE": "U", "NORAD_CAT_ID": 30553, "ELEMENT_SET_NO": 999, "REV_AT_EPOCH": 98613, "BSTAR": 0.0035973637, "MEAN_MOTION_DOT": 0.00022986, "MEAN_MOTION_DDOT": 0}, "tle": {"line1": "1 30553U 99025AKT 25356.23239108  .00022986  00000+0  35974-2 0  9996", "line2": "2 30553  99.1309  92.2862 0019613 123.2859 237.0227 14.72619410986133"}}, "geometry": {"type": "Point", "coordinates": [94.21780944964377, -0.6289095782571946]}}, {"type": "Feature", "properties": {"norad_id": 30555, "name": "FENGYUN 1C DEB", "group": "fengyun-1c-debris", "lat": -59.51748481410536, "lon": -143.89009374501956, "alt_km": 798.435484674701, "timestamp": "2025-12-23T20:42:37.353121+00:00", "meta": {"OBJECT_NAME": "FENGYUN 1C DEB", "OBJECT_ID": "1999-025AKV", "EPOCH": "2025-12-23T02:48:58.282272", "MEAN_MOTION": 14.20861747, "ECCENTRICITY": 0.00431767, "INCLINATION": 98.7562, "RA_OF_ASC_NODE": 50.5501, "ARG_OF_PERICENTER": 241.4406, "MEAN_ANOMALY": 147.5394, "EPHEMERIS_TYPE": 0, "CLASSIFICATION_TYPE": "U", "NORAD_CAT_ID": 30555, "ELEMENT_SET_NO": 999, "REV_AT_EPOCH": 97083, "BSTAR": 0.001348265, "MEAN_MOTION_DOT": 2.899e-05, "MEAN_MOTION_DDOT": 0}, "tle": {"line1": "1 30555U 99025AKV 25357.11734123  .00002899  00000+0  13483-2 0  9995", "line2": "2 30555  98.7562  50.5501 0043176 241.4406 147.5394 14.20861747970835"}}, "geometry": {"type": "Point", "coordinates": [-143.89009374501956, -59.51748481410536]}}, {"type": "Feature", "properties": {"norad_id": 30556, "name": "FENGYUN 1C DEB", "group": "fengyun-1c-debris", "lat": -30.858466932572842, "lon": -4.003618603817207, "alt_km": 921.6100690436879, "timestamp": "2025-12-23T20:42:37.353132+00:00", "meta": {"OBJECT_NAME": "FENGYUN 1C DEB", "OBJECT_ID": "1999-025AKW", "EPOCH": "2025-12-22T22:43:27.357024", "MEAN_MOTION": 14.01373193, "ECCENTRICITY": 0.0068593, "INCLINATION": 98.7808, "RA_OF_ASC_NODE": 349.8162, "ARG_OF_PERICENTER": 208.7629, "MEAN_ANOMALY": 180.3531, "EPHEMERIS_TYPE": 0, "CLASSIFICATION_TYPE": "U", "NORAD_CAT_ID": 30556, "ELEMENT_SET_NO": 999, "REV_AT_EPOCH": 96400, "BSTAR": 0.00016385, "MEAN_MOTION_DOT": 2.1e-06, "MEAN_MOTION_DDOT": 0}, "tle": {"line1": "1 30556U 99025AKW 25356.94684441  .00000210  00000+0  16385-3 0  9993", "line2": "2 30556  98.7808 349.8162 0068593 208.7629 180.3531 14.01373193964001"}}, "geometry": {"type": "Point", "coordinates": [-4.003618603817207, -30.858466932572842]}}, {"type": "Feature", "properties": {"norad_id": 30557, "name": "FENGYUN 1C DEB", "group": "fengyun-1c-debris", "lat": 68.4013328476064, "lon": -93.68816978836448, "alt_km": 850.9917398838143, "timestamp": "2025-12-23T20:42:37.353145+00:00", "meta": {"OBJECT_NAME": "FENGYUN 1C DEB", "OBJECT_ID": "1999-025AKX", "EPOCH": "2025-12-22T16:57:14.652576", "MEAN_MOTION": 14.10841924, "ECCENTRICITY": 0.00687056, "INCLINATION": 98.9195, "RA_OF_ASC_NODE": 61.7935, "ARG_OF_PERICENTER": 204.7549, "MEAN_ANOMALY": 155.032, "EPHEMERIS_TYPE": 0, "CLASSIFICATION_TYPE": "U", "NORAD_CAT_ID": 30557, "ELEMENT_SET_NO": 999, "REV_AT_EPOCH": 96441, "BSTAR": 0.0012107904, "MEAN_MOTION_DOT": 2.174e-05, "MEAN_MOTION_DDOT": 0}, "tle": {"line1": "1 30557U 99025AKX 25356.70641959  .00002174  00000+0  12108-2 0  9994", "line2": "2 30557  98.9195  61.7935 0068705 204.7549 155.0320 14.10841924964415"}}, "geometry": {"type": "Point", "coordinates": [-93.68816978836448, 68.4013328476064]}}]}